$$SOE
2460154.500000000, A.D. 2023-Jul-29 00:00:00.0000, -4.873135486451413E+08, -2.057028513842535E+07, 7.043258081783970E+07,
2460161.500000000, A.D. 2023-Aug-05 00:00:00.0000, -4.864518762849814E+08, -2.989683215731969E+07, 7.158689587191854E+07,
2460168.500000000, A.D. 2023-Aug-12 00:00:00.0000, -4.853927024545591E+08, -3.921125424694234E+07, 7.271213834884596E+07,
2460175.500000000, A.D. 2023-Aug-19 00:00:00.0000, -4.841361871618872E+08, -4.850974863501800E+07, 7.380781056352426E+07,
2460182.500000000, A.D. 2023-Aug-26 00:00:00.0000, -4.826825481594321E+08, -5.778850662879406E+07, 7.487342200325587E+07,
2460189.500000000, A.D. 2023-Sep-02 00:00:00.0000, -4.810320613719529E+08, -6.704371381876086E+07, 7.590848941601993E+07,
2460196.500000000, A.D. 2023-Sep-09 00:00:00.0000, -4.791850613407251E+08, -7.627155040820873E+07, 7.691253689340089E+07,
2460203.500000000, A.D. 2023-Sep-16 00:00:00.0000, -4.771419415155439E+08, -8.546819172807708E+07, 7.788509592820565E+07,
2460210.500000000, A.D. 2023-Sep-23 00:00:00.0000, -4.749031539778123E+08, -9.462980865171619E+07, 7.882570543223250E+07,
2460217.500000000, A.D. 2023-Sep-30 00:00:00.0000, -4.724692089336785E+08, -1.037525667203196E+08, 7.973391184281862E+07,
2460224.500000000, A.D. 2023-Oct-07 00:00:00.0000, -4.698406763304989E+08, -1.128326245238317E+08, 8.060926948989676E+07,
2460231.500000000, A.D. 2023-Oct-14 00:00:00.0000, -4.670181885575117E+08, -1.218661346527079E+08, 8.145134085796717E+07,
2460238.500000000, A.D. 2023-Oct-21 00:00:00.0000, -4.640024410028901E+08, -1.308492456189128E+08, 8.225969657851063E+07,
2460245.500000000, A.D. 2023-Oct-28 00:00:00.0000, -4.607941918904016E+08, -1.397781024867031E+08, 8.303391546846293E+07,
2460252.500000000, A.D. 2023-Nov-04 00:00:00.0000, -4.573942626441989E+08, -1.486488469853767E+08, 8.377358466654861E+07,
2460259.500000000, A.D. 2023-Nov-11 00:00:00.0000, -4.538035386037966E+08, -1.574576177063156E+08, 8.447829980254491E+07,
2460266.500000000, A.D. 2023-Nov-18 00:00:00.0000, -4.500229698699509E+08, -1.662005504507530E+08, 8.514766517467816E+07,
2460273.500000000, A.D. 2023-Nov-25 00:00:00.0000, -4.460535722085769E+08, -1.748737787074666E+08, 8.578129393086326E+07,
2460280.500000000, A.D. 2023-Dec-02 00:00:00.0000, -4.418964279841500E+08, -1.834734342733726E+08, 8.637880825071476E+07,
2460287.500000000, A.D. 2023-Dec-09 00:00:00.0000, -4.375526870442839E+08, -1.919956480778536E+08, 8.693983951672634E+07,
2460294.500000000, A.D. 2023-Dec-16 00:00:00.0000, -4.330235672674900E+08, -2.004365512002366E+08, 8.746402844957545E+07,
2460301.500000000, A.D. 2023-Dec-23 00:00:00.0000, -4.283103544251351E+08, -2.087922753948131E+08, 8.795102523198549E+07,
2460308.500000000, A.D. 2023-Dec-30 00:00:00.0000, -4.234144026969019E+08, -2.170589520758350E+08, 8.840048982984816E+07,
2460315.500000000, A.D. 2024-Jan-06 00:00:00.0000, -4.183371376113175E+08, -2.252327121252135E+08, 8.881209248020133E+07,
2460322.500000000, A.D. 2024-Jan-13 00:00:00.0000, -4.130800582384874E+08, -2.333096883318226E+08, 8.918551390750241E+07,
2460329.500000000, A.D. 2024-Jan-20 00:00:00.0000, -4.076447374105653E+08, -2.412860173785509E+08, 8.952044540787530E+07,
2460336.500000000, A.D. 2024-Jan-27 00:00:00.0000, -4.020328219956547E+08, -2.491578407254645E+08, 8.981658903986825E+07,
2460343.500000000, A.D. 2024-Feb-03 00:00:00.0000, -3.962460336499771E+08, -2.569213053399840E+08, 9.007365788258733E+07,
2460350.500000000, A.D. 2024-Feb-10 00:00:00.0000, -3.902861697687813E+08, -2.645725645690885E+08, 9.029137631170204E+07,
2460357.500000000, A.D. 2024-Feb-17 00:00:00.0000, -3.841551044967440E+08, -2.721077791496816E+08, 9.046948028165840E+07,
2460364.500000000, A.D. 2024-Feb-24 00:00:00.0000, -3.778547897620091E+08, -2.795231183455219E+08, 9.060771761265144E+07,
2460371.500000000, A.D. 2024-Mar-02 00:00:00.0000, -3.713872563042332E+08, -2.868147612455294E+08, 9.070584827749422E+07,
2460378.500000000, A.D. 2024-Mar-09 00:00:00.0000, -3.647546145567985E+08, -2.939788982881743E+08, 9.076364467073578E+07,
2460385.500000000, A.D. 2024-Mar-16 00:00:00.0000, -3.579590549861915E+08, -3.010117328164218E+08, 9.078089183991745E+07,
2460392.500000000, A.D. 2024-Mar-23 00:00:00.0000, -3.510028479898081E+08, -3.079094815558426E+08, 9.075738777895281E+07,
2460399.500000000, A.D. 2024-Mar-30 00:00:00.0000, -3.438883455903276E+08, -3.146683740444988E+08, 9.069294398668909E+07,
2460406.500000000, A.D. 2024-Apr-06 00:00:00.0000, -3.366179846677541E+08, -3.212846543850326E+08, 9.058738599181846E+07,
2460413.500000000, A.D. 2024-Apr-13 00:00:00.0000, -3.291942881762576E+08, -3.277545844857649E+08, 9.044055358710912E+07,
2460420.500000000, A.D. 2024-Apr-20 00:00:00.0000, -3.216198652961057E+08, -3.340744461161116E+08, 9.025230107923234E+07,
2460427.500000000, A.D. 2024-Apr-27 00:00:00.0000, -3.138974120346735E+08, -3.402405423387923E+08, 9.002249764714395E+07,
2460434.500000000, A.D. 2024-May-04 00:00:00.0000, -3.060297121848093E+08, -3.462491990235088E+08, 8.975102774291849E+07,
2460441.500000000, A.D. 2024-May-11 00:00:00.0000, -2.980196383982329E+08, -3.520967665457197E+08, 8.943779150438869E+07,
2460448.500000000, A.D. 2024-May-18 00:00:00.0000, -2.898701532881317E+08, -3.577796216509928E+08, 8.908270517359981E+07,
2460455.500000000, A.D. 2024-May-25 00:00:00.0000, -2.815843105323908E+08, -3.632941694940961E+08, 8.868570151815042E+07,
2460462.500000000, A.D. 2024-Jun-01 00:00:00.0000, -2.731652559135782E+08, -3.686368459122190E+08, 8.824673024522811E+07,
2460469.500000000, A.D. 2024-Jun-08 00:00:00.0000, -2.646162280451468E+08, -3.738041199573033E+08, 8.776575838393906E+07,
2460476.500000000, A.D. 2024-Jun-15 00:00:00.0000, -2.559405583801436E+08, -3.787924961443652E+08, 8.724277064396122E+07,
2460483.500000000, A.D. 2024-Jun-22 00:00:00.0000, -2.471416715032404E+08, -3.835985152421695E+08, 8.667776993876304E+07,
2460490.500000000, A.D. 2024-Jun-29 00:00:00.0000, -2.382230878226694E+08, -3.882187554283379E+08, 8.607077811893676E+07,
2460497.500000000, A.D. 2024-Jul-06 00:00:00.0000, -2.291884260119941E+08, -3.926498362821807E+08, 8.542183647098529E+07,
2460504.500000000, A.D. 2024-Jul-13 00:00:00.0000, -2.200414032481627E+08, -3.968884227935565E+08, 8.473100603370468E+07,
2460511.500000000, A.D. 2024-Jul-20 00:00:00.0000, -2.107858352269480E+08, -4.009312282401571E+08, 8.399836800792733E+07,
2460518.500000000, A.D. 2024-Jul-27 00:00:00.0000, -2.014256366062872E+08, -4.047750168928851E+08, 8.322402424061249E+07,
2460525.500000000, A.D. 2024-Aug-03 00:00:00.0000, -1.919648215983355E+08, -4.084166069243217E+08, 8.240809772652517E+07,
2460532.500000000, A.D. 2024-Aug-10 00:00:00.0000, -1.824075045377202E+08, -4.118528735250204E+08, 8.155073311077711E+07,
2460539.500000000, A.D. 2024-Aug-17 00:00:00.0000, -1.727579003718553E+08, -4.150807522064890E+08, 8.065209718865445E+07,
2460546.500000000, A.D. 2024-Aug-24 00:00:00.0000, -1.630203250388972E+08, -4.180972423136610E+08, 7.971237939748554E+07,
2460553.500000000, A.D. 2024-Aug-31 00:00:00.0000, -1.531991956113012E+08, -4.208994108084728E+08, 7.873179228403169E+07,
2460560.500000000, A.D. 2024-Sep-07 00:00:00.0000, -1.432990298331113E+08, -4.234843961977068E+08, 7.771057192318562E+07,
2460567.500000000, A.D. 2024-Sep-14 00:00:00.0000, -1.333244449594037E+08, -4.258494116078160E+08, 7.664897836028165E+07,
2460574.500000000, A.D. 2024-Sep-21 00:00:00.0000, -1.232801579199609E+08, -4.279917465910845E+08, 7.554729629502663E+07,
2460581.500000000, A.D. 2024-Sep-28 00:00:00.0000, -1.131709872865816E+08, -4.299087708865542E+08, 7.440583578563729E+07,
2460588.500000000, A.D. 2024-Oct-05 00:00:00.0000, -1.030018533652158E+08, -4.315979401305863E+08, 7.322493263450052E+07,
2460595.500000000, A.D. 2024-Oct-12 00:00:00.0000, -9.277777676428862E+07, -4.330568005342291E+08, 7.200494873017687E+07,
2460602.500000000, A.D. 2024-Oct-19 00:00:00.0000, -8.250387718080045E+07, -4.342829927955313E+08, 7.074627248268002E+07,
2460609.500000000, A.D. 2024-Oct-26 00:00:00.0000, -7.218537242766273E+07, -4.352742560456566E+08, 6.944931928826661E+07,
2460616.500000000, A.D. 2024-Nov-02 00:00:00.0000, -6.182757743679310E+07, -4.360284319741079E+08, 6.811453198681527E+07,
2460623.500000000, A.D. 2024-Nov-09 00:00:00.0000, -5.143590313351408E+07, -4.365434691080731E+08, 6.674238130315928E+07,
2460630.500000000, A.D. 2024-Nov-16 00:00:00.0000, -4.101585514824931E+07, -4.368174272402711E+08, 6.533336626828605E+07,
2460637.500000000, A.D. 2024-Nov-23 00:00:00.0000, -3.057303231027509E+07, -4.368484820491475E+08, 6.388801461018752E+07,
2460644.500000000, A.D. 2024-Nov-30 00:00:00.0000, -2.011312470699204E+07, -4.366349299473536E+08, 6.240688308987328E+07,
2460651.500000000, A.D. 2024-Dec-07 00:00:00.0000, -9.641910881158857E+06, -4.361751927303975E+08, 6.089055777642825E+07,
2460658.500000000, A.D. 2024-Dec-14 00:00:00.0000, 8.347451531870108E+05, -4.354678207929693E+08, 5.933965442208938E+07,
2460665.500000000, A.D. 2024-Dec-21 00:00:00.0000, 1.131089476552606E+07, -4.345114961435843E+08, 5.775481904604733E+07,
2460672.500000000, A.D. 2024-Dec-28 00:00:00.0000, 2.178050541546950E+07, -4.333050381740948E+08, 5.613672830090082E+07,
2460679.500000000, A.D. 2025-Jan-04 00:00:00.0000, 3.223746381688860E+07, -4.318474097981275E+08, 5.448608957556370E+07,
2460686.500000000, A.D. 2025-Jan-11 00:00:00.0000, 4.267557974563668E+07, -4.301377222885822E+08, 5.280364113535340E+07,
2460693.500000000, A.D. 2025-Jan-18 00:00:00.0000, 5.308858958056878E+07, -4.281752397215013E+08, 5.109015230611014E+07,
2460700.500000000, A.D. 2025-Jan-25 00:00:00.0000, 6.347015982754318E+07, -4.259593834882345E+08, 4.934642363890703E+07,
2460707.500000000, A.D. 2025-Feb-01 00:00:00.0000, 7.381389082152084E+07, -4.234897368924291E+08, 4.757328703306314E+07,
2460714.500000000, A.D. 2025-Feb-08 00:00:00.0000, 8.411332067028776E+07, -4.207660497975050E+08, 4.577160581110707E+07,
$$EOE